ONEWEB-0171             
1 48070U 21025AE  24308.87047062 -.00000045  00000+0 -15695-3 0  9999
2 48070  87.8906  77.6719 0001580  92.4866 267.6444 13.13471152176123
ONEWEB-0172             
1 48071U 21025AF  24308.84983656 -.00000275  00000+0 -78820-3 0  9999
2 48071  87.8906  77.6419 0001510  92.2596 267.8706 13.13471555177011
ONEWEB-0174             
1 48072U 21025AG  24308.90854709  .00000111  00000+0  27032-3 0  9999
2 48072  87.8906  77.6445 0001434  99.5547 260.5744 13.13468554176344
ONEWEB-0175             
1 48073U 21025AH  24308.86094316 -.00000234  00000+0 -67522-3 0  9991
2 48073  87.8902  77.6344 0001822  88.0179 272.1158 13.13469875175999
ONEWEB-0177             
1 48074U 21025AJ  24308.87364629  .00000084  00000+0  19533-3 0  9990
2 48074  87.8902  77.6419 0001148  91.7352 268.3908 13.13471646176189
ONEWEB-0178             
1 48075U 21025AK  24308.89123915  .00000405  00000+0  10730-2 0  9990
2 48075  87.8908  77.6660 0001343  91.6357 268.4926 13.13471123176232
ONEWEB-0108             
1 48076U 21025AL  24308.85142880 -.00000295  00000+0 -84375-3 0  9995
2 48076  87.8900  77.6423 0001650 105.0984 255.0328 13.13470661176154
ONEWEB-0169             
1 48077U 21025AM  24308.88316903  .00000329  00000+0  86662-3 0  9995
2 48077  87.8902  77.6503 0001591 104.3750 255.7556 13.13469391176050
